RADUGA 32               
1 23448U 94087A   09169.19176399  .00000000  00000-0  10000-3 0  1591
2 23448  10.2330  52.3717 0005365 123.0503 236.9352  1.00279729 70699
RADUGA-1 4              
1 25642U 99010A   09168.14344497 -.00000339  00000-0  10000-3 0  2643
2 25642   8.8733  69.0626 0002423 143.6398 216.2702  1.00248188 37725
RADUGA-1 5              
1 26477U 00049A   09169.59458360  .00000104  00000-0  10000-3 0  5865
2 26477   6.5078  67.1208 0001666 326.3092 140.0138  1.00318700 32240
RADUGA-1 7              
1 28194U 04010A   09169.99736105 -.00000164  00000-0  10000-3 0  2050
2 28194   3.8284  84.9987 0002630  13.4453 252.6868  1.00263053 19150
RADUGA-1M 1             
1 32373U 07058A   09169.91533340 -.00000021  00000-0  10000-3 0  4602
2 32373   0.0195 268.9109 0003370 203.4800 194.3629  1.00271755  6480
